<?xml version="1.0" encoding="UTF-8"?>
<ndm xmlns:xsi="http://www.w3.org/2001/XMLSchema-instance" xsi:noNamespaceSchemaLocation="https://sanaregistry.org/r/ndmxml_unqualified/ndmxml-2.0.0-master-2.0.xsd">
<omm id="CCSDS_OMM_VERS" version="2.0">
<header><CREATION_DATE/><ORIGINATOR/></header><body><segment><metadata><OBJECT_NAME>ORBCOMM FM24</OBJECT_NAME><OBJECT_ID>1998-053D</OBJECT_ID><CENTER_NAME>EARTH</CENTER_NAME><REF_FRAME>TEME</REF_FRAME><TIME_SYSTEM>UTC</TIME_SYSTEM><MEAN_ELEMENT_THEORY>SGP4</MEAN_ELEMENT_THEORY></metadata><data><meanElements><EPOCH>2024-06-24T10:22:39.506880</EPOCH><MEAN_MOTION>14.35857867</MEAN_MOTION><ECCENTRICITY>.0002784</ECCENTRICITY><INCLINATION>45.0072</INCLINATION><RA_OF_ASC_NODE>162.6123</RA_OF_ASC_NODE><ARG_OF_PERICENTER>279.9156</ARG_OF_PERICENTER><MEAN_ANOMALY>80.1377</MEAN_ANOMALY></meanElements><tleParameters><EPHEMERIS_TYPE>0</EPHEMERIS_TYPE><CLASSIFICATION_TYPE>U</CLASSIFICATION_TYPE><NORAD_CAT_ID>25478</NORAD_CAT_ID><ELEMENT_SET_NO>999</ELEMENT_SET_NO><REV_AT_EPOCH>34598</REV_AT_EPOCH><BSTAR>.38999E-3</BSTAR><MEAN_MOTION_DOT>.999E-5</MEAN_MOTION_DOT><MEAN_MOTION_DDOT>0</MEAN_MOTION_DDOT></tleParameters></data></segment></body></omm>
<omm id="CCSDS_OMM_VERS" version="2.0">
<header><CREATION_DATE/><ORIGINATOR/></header><body><segment><metadata><OBJECT_NAME>ORBCOMM FM26</OBJECT_NAME><OBJECT_ID>1998-053F</OBJECT_ID><CENTER_NAME>EARTH</CENTER_NAME><REF_FRAME>TEME</REF_FRAME><TIME_SYSTEM>UTC</TIME_SYSTEM><MEAN_ELEMENT_THEORY>SGP4</MEAN_ELEMENT_THEORY></metadata><data><meanElements><EPOCH>2024-06-25T02:52:26.874336</EPOCH><MEAN_MOTION>14.35259758</MEAN_MOTION><ECCENTRICITY>.0007541</ECCENTRICITY><INCLINATION>45.0060</INCLINATION><RA_OF_ASC_NODE>151.9284</RA_OF_ASC_NODE><ARG_OF_PERICENTER>286.1056</ARG_OF_PERICENTER><MEAN_ANOMALY>73.8961</MEAN_ANOMALY></meanElements><tleParameters><EPHEMERIS_TYPE>0</EPHEMERIS_TYPE><CLASSIFICATION_TYPE>U</CLASSIFICATION_TYPE><NORAD_CAT_ID>25480</NORAD_CAT_ID><ELEMENT_SET_NO>999</ELEMENT_SET_NO><REV_AT_EPOCH>34641</REV_AT_EPOCH><BSTAR>.39608E-3</BSTAR><MEAN_MOTION_DOT>.1003E-4</MEAN_MOTION_DOT><MEAN_MOTION_DDOT>0</MEAN_MOTION_DDOT></tleParameters></data></segment></body></omm>
<omm id="CCSDS_OMM_VERS" version="2.0">
<header><CREATION_DATE/><ORIGINATOR/></header><body><segment><metadata><OBJECT_NAME>ORBCOMM FM27</OBJECT_NAME><OBJECT_ID>1998-053G</OBJECT_ID><CENTER_NAME>EARTH</CENTER_NAME><REF_FRAME>TEME</REF_FRAME><TIME_SYSTEM>UTC</TIME_SYSTEM><MEAN_ELEMENT_THEORY>SGP4</MEAN_ELEMENT_THEORY></metadata><data><meanElements><EPOCH>2024-06-25T02:00:28.884096</EPOCH><MEAN_MOTION>14.35827972</MEAN_MOTION><ECCENTRICITY>.0002073</ECCENTRICITY><INCLINATION>45.0047</INCLINATION><RA_OF_ASC_NODE>158.0458</RA_OF_ASC_NODE><ARG_OF_PERICENTER>314.8763</ARG_OF_PERICENTER><MEAN_ANOMALY>45.1915</MEAN_ANOMALY></meanElements><tleParameters><EPHEMERIS_TYPE>0</EPHEMERIS_TYPE><CLASSIFICATION_TYPE>U</CLASSIFICATION_TYPE><NORAD_CAT_ID>25481</NORAD_CAT_ID><ELEMENT_SET_NO>999</ELEMENT_SET_NO><REV_AT_EPOCH>34634</REV_AT_EPOCH><BSTAR>.43012E-3</BSTAR><MEAN_MOTION_DOT>.1115E-4</MEAN_MOTION_DOT><MEAN_MOTION_DDOT>0</MEAN_MOTION_DDOT></tleParameters></data></segment></body></omm>
<omm id="CCSDS_OMM_VERS" version="2.0">
<header><CREATION_DATE/><ORIGINATOR/></header><body><segment><metadata><OBJECT_NAME>ORBCOMM FM28</OBJECT_NAME><OBJECT_ID>1998-053H</OBJECT_ID><CENTER_NAME>EARTH</CENTER_NAME><REF_FRAME>TEME</REF_FRAME><TIME_SYSTEM>UTC</TIME_SYSTEM><MEAN_ELEMENT_THEORY>SGP4</MEAN_ELEMENT_THEORY></metadata><data><meanElements><EPOCH>2024-06-24T05:19:28.897536</EPOCH><MEAN_MOTION>14.36250017</MEAN_MOTION><ECCENTRICITY>.0004963</ECCENTRICITY><INCLINATION>45.0062</INCLINATION><RA_OF_ASC_NODE>100.4363</RA_OF_ASC_NODE><ARG_OF_PERICENTER>314.2335</ARG_OF_PERICENTER><MEAN_ANOMALY>45.8104</MEAN_ANOMALY></meanElements><tleParameters><EPHEMERIS_TYPE>0</EPHEMERIS_TYPE><CLASSIFICATION_TYPE>U</CLASSIFICATION_TYPE><NORAD_CAT_ID>25482</NORAD_CAT_ID><ELEMENT_SET_NO>999</ELEMENT_SET_NO><REV_AT_EPOCH>34685</REV_AT_EPOCH><BSTAR>.47214E-3</BSTAR><MEAN_MOTION_DOT>.125E-4</MEAN_MOTION_DOT><MEAN_MOTION_DDOT>0</MEAN_MOTION_DDOT></tleParameters></data></segment></body></omm>
<omm id="CCSDS_OMM_VERS" version="2.0">
<header><CREATION_DATE/><ORIGINATOR/></header><body><segment><metadata><OBJECT_NAME>ORBCOMM FM30</OBJECT_NAME><OBJECT_ID>1999-065A</OBJECT_ID><CENTER_NAME>EARTH</CENTER_NAME><REF_FRAME>TEME</REF_FRAME><TIME_SYSTEM>UTC</TIME_SYSTEM><MEAN_ELEMENT_THEORY>SGP4</MEAN_ELEMENT_THEORY></metadata><data><meanElements><EPOCH>2024-06-24T12:29:41.490240</EPOCH><MEAN_MOTION>14.35399650</MEAN_MOTION><ECCENTRICITY>.0004973</ECCENTRICITY><INCLINATION>45.0334</INCLINATION><RA_OF_ASC_NODE>340.3305</RA_OF_ASC_NODE><ARG_OF_PERICENTER>17.6365</ARG_OF_PERICENTER><MEAN_ANOMALY>342.4654</MEAN_ANOMALY></meanElements><tleParameters><EPHEMERIS_TYPE>0</EPHEMERIS_TYPE><CLASSIFICATION_TYPE>U</CLASSIFICATION_TYPE><NORAD_CAT_ID>25980</NORAD_CAT_ID><ELEMENT_SET_NO>999</ELEMENT_SET_NO><REV_AT_EPOCH>28302</REV_AT_EPOCH><BSTAR>.43384E-3</BSTAR><MEAN_MOTION_DOT>.1115E-4</MEAN_MOTION_DOT><MEAN_MOTION_DDOT>0</MEAN_MOTION_DDOT></tleParameters></data></segment></body></omm>
<omm id="CCSDS_OMM_VERS" version="2.0">
<header><CREATION_DATE/><ORIGINATOR/></header><body><segment><metadata><OBJECT_NAME>ORBCOMM FM31</OBJECT_NAME><OBJECT_ID>1999-065B</OBJECT_ID><CENTER_NAME>EARTH</CENTER_NAME><REF_FRAME>TEME</REF_FRAME><TIME_SYSTEM>UTC</TIME_SYSTEM><MEAN_ELEMENT_THEORY>SGP4</MEAN_ELEMENT_THEORY></metadata><data><meanElements><EPOCH>2024-06-24T20:01:20.143488</EPOCH><MEAN_MOTION>14.35394036</MEAN_MOTION><ECCENTRICITY>.0002265</ECCENTRICITY><INCLINATION>45.0247</INCLINATION><RA_OF_ASC_NODE>332.5110</RA_OF_ASC_NODE><ARG_OF_PERICENTER>56.1703</ARG_OF_PERICENTER><MEAN_ANOMALY>303.9360</MEAN_ANOMALY></meanElements><tleParameters><EPHEMERIS_TYPE>0</EPHEMERIS_TYPE><CLASSIFICATION_TYPE>U</CLASSIFICATION_TYPE><NORAD_CAT_ID>25981</NORAD_CAT_ID><ELEMENT_SET_NO>999</ELEMENT_SET_NO><REV_AT_EPOCH>28359</REV_AT_EPOCH><BSTAR>.39859E-3</BSTAR><MEAN_MOTION_DOT>.1013E-4</MEAN_MOTION_DOT><MEAN_MOTION_DDOT>0</MEAN_MOTION_DDOT></tleParameters></data></segment></body></omm>
<omm id="CCSDS_OMM_VERS" version="2.0">
<header><CREATION_DATE/><ORIGINATOR/></header><body><segment><metadata><OBJECT_NAME>ORBCOMM FM32</OBJECT_NAME><OBJECT_ID>1999-065C</OBJECT_ID><CENTER_NAME>EARTH</CENTER_NAME><REF_FRAME>TEME</REF_FRAME><TIME_SYSTEM>UTC</TIME_SYSTEM><MEAN_ELEMENT_THEORY>SGP4</MEAN_ELEMENT_THEORY></metadata><data><meanElements><EPOCH>2024-06-24T20:20:16.246464</EPOCH><MEAN_MOTION>14.34397578</MEAN_MOTION><ECCENTRICITY>.000476</ECCENTRICITY><INCLINATION>45.0176</INCLINATION><RA_OF_ASC_NODE>346.5764</RA_OF_ASC_NODE><ARG_OF_PERICENTER>52.4651</ARG_OF_PERICENTER><MEAN_ANOMALY>307.6628</MEAN_ANOMALY></meanElements><tleParameters><EPHEMERIS_TYPE>0</EPHEMERIS_TYPE><CLASSIFICATION_TYPE>U</CLASSIFICATION_TYPE><NORAD_CAT_ID>25982</NORAD_CAT_ID><ELEMENT_SET_NO>999</ELEMENT_SET_NO><REV_AT_EPOCH>28325</REV_AT_EPOCH><BSTAR>.42613E-3</BSTAR><MEAN_MOTION_DOT>.1069E-4</MEAN_MOTION_DOT><MEAN_MOTION_DDOT>0</MEAN_MOTION_DDOT></tleParameters></data></segment></body></omm>

</ndm>
