ORBCOMM FM24            
1 25478U 98053D   24176.43240170  .00000999  00000+0  38999-3 0  9999
2 25478  45.0072 162.6123 0002784 279.9156  80.1377 14.35857867345986
ORBCOMM FM26            
1 25480U 98053F   24177.11975549  .00001003  00000+0  39608-3 0  9998
2 25480  45.0060 151.9284 0007541 286.1056  73.8961 14.35259758346412
ORBCOMM FM27            
1 25481U 98053G   24177.08366764  .00001115  00000+0  43012-3 0  9996
2 25481  45.0047 158.0458 0002073 314.8763  45.1915 14.35827972346340
ORBCOMM FM28            
1 25482U 98053H   24176.22186224  .00001250  00000+0  47214-3 0  9991
2 25482  45.0062 100.4363 0004963 314.2335  45.8104 14.36250017346857
ORBCOMM FM30            
1 25980U 99065A   24176.52061910  .00001115  00000+0  43384-3 0  9999
2 25980  45.0334 340.3305 0004973  17.6365 342.4654 14.35399650283022
ORBCOMM FM31            
1 25981U 99065B   24176.83426092  .00001013  00000+0  39859-3 0  9999
2 25981  45.0247 332.5110 0002265  56.1703 303.9360 14.35394036283590
ORBCOMM FM32            
1 25982U 99065C   24176.84741026  .00001069  00000+0  42613-3 0  9991
2 25982  45.0176 346.5764 0004760  52.4651 307.6628 14.34397578283259
